QIANFAN-17              
1 60395U 24140S   25258.81901291  .00000050  00000+0  59168-4 0  9994
2 60395  88.9802 308.5348 0017225  99.9959 260.3137 13.50969513 56261
QIANFAN-18              
1 60396U 24140T   25258.79849139  .00000053  00000+0  62896-4 0  9999
2 60396  88.9793 308.0772 0016472  85.0293 275.2738 13.50971221 55650
QIANFAN-19              
1 61552U 24185A   25258.84881761  .00000388  00000+0  19631-3 0  9995
2 61552  88.9754  88.0210 0005603 213.1353 146.9484 14.14153079 57242
QIANFAN-20              
1 61553U 24185B   25258.82562808  .00000432  00000+0  24319-3 0  9991
2 61553  88.9752  88.2590 0003788 262.4161  97.6593 14.08703275 57111
QIANFAN-21              
1 61554U 24185C   25258.82189611  .00000574  00000+0  25139-3 0  9997
2 61554  88.9669  87.2853 0008702 294.8028  65.2258 14.22415340 57479
QIANFAN-22              
1 61555U 24185D   25258.87455621  .00000198  00000+0  16005-3 0  9994
2 61555  88.9738  88.8814 0004634 261.7503  98.3142 13.86254073 56765
QIANFAN-23              
1 61556U 24185E   25258.87722267  .00000531  00000+0  26163-3 0  9995
2 61556  88.9747  87.8682 0006060 229.8462 130.2195 14.16132651 57319
QIANFAN-24              
1 61557U 24185F   25258.82864263  .00000604  00000+0  25900-3 0  9993
2 61557  88.9728  87.4226 0008169 215.2205 144.8449 14.23619155 57517
